CSTP-2.11
1 61744U 24199K   25037.92963091  .00019835  00000-0  72200-3 0  9993
2 61744  97.3776 267.5991 0011957 259.3927 100.5966 15.28191405 58198
POLYTECH UNIVERSE-5 (RS70S)
1 61745U 24199L   25037.91459977  .00025651  00000-0  91720-3 0  9997
2 61745  97.3749 267.5826 0009521 269.0428  90.9721 15.28749969 61339
COLIBRI-S (RS67S)
1 61746U 24199M   25037.87923928  .00018325  00000-0  67589-3 0  9991
2 61746  97.3774 267.5096 0011858 260.3356  99.6544 15.27775255 61321
POLYTECH UNIVERSE-4 (RS71S)
1 61747U 24199N   25037.88161755  .00017982  00000-0  66691-3 0  9996
2 61747  97.3773 267.5050 0011841 258.2104 101.7807 15.27597359 61324
SITRO-AIS-44
1 61748U 24199P   25037.83697706  .00027324  00000-0  96587-3 0  9990
2 61748  97.3748 267.5332 0009335 269.3821  90.6349 15.29113659 61320
VIZARD-ION (RS68S)
1 61749U 24199Q   25037.92064834  .00024030  00000-0  86670-3 0  9994
2 61749  97.3777 267.6086 0011473 257.9552 102.0403 15.28460267 61339
MTUSI-1
1 61750U 24199R   25037.89473445  .00023267  00000-0  85586-3 0  9990
2 61750  97.3750 267.4588 0011824 271.9082  88.0803 15.27814514 61324
VLADIVOSTOK-1
1 61751U 24199S   25037.93089007  .00012654  00000-0  48913-3 0  9994
2 61751  97.3752 267.4132 0010769 270.0802  89.9203 15.26317283 61334
SITRO-AIS-14
1 61752U 24199T   25037.92088165  .00005401  00000-0  51461-3 0  9992
2 61752  97.3766 262.9704 0005681 308.4722  51.5989 14.93744495 61089
HORS-3 (RS81S)
1 61753U 24199U   25037.94104100  .00023326  00000-0  84973-3 0  9993
2 61753  97.3746 267.5469 0010302 269.3298  90.6761 15.28150902 61339
HORS-4 (RS82S)
1 61754U 24199V   25037.92700900  .00025203  00000-0  90645-3 0  9991
2 61754  97.3744 267.5637 0010377 269.9048  90.1003 15.28553379 61335
SITRO-AIS-43
1 61755U 24199W   25037.76880309  .00027385  00000-0  96647-3 0  9997
2 61755  97.3747 267.4717 0009269 269.4018  90.6160 15.29166735 61311
SITRO-AIS-42
1 61756U 24199X   25037.89864217  .00027324  00000-0  96366-3 0  9993
2 61756  97.3748 267.6028 0009319 269.1637  90.8535 15.29189488 61330
HORIZON (RS59S)
1 61757U 24199Y   25037.89150377  .00030660  00000-0  10653-2 0  9990
2 61757  97.3772 267.6422 0011220 258.6018 101.3962 15.29633624 61334
SITRO-AIS-20
1 61758U 24199Z   25037.91252362  .00006342  00000-0  60074-3 0  9994
2 61758  97.3765 262.9780 0005414 312.6528  47.4236 14.93912933 61086
SITRO-AIS-19
1 61759U 24199AA  25037.91066427  .00006242  00000-0  59126-3 0  9995
2 61759  97.3765 262.9810 0005327 314.5915  45.4871 14.93925228 61089
SITRO-AIS-41
1 61760U 24199AB  25037.83659249  .00025032  00000-0  88720-3 0  9998
2 61760  97.3751 267.5348 0009191 269.9535  90.0652 15.29046727 61325
2024-199AC
1 61761U 24199AC  25037.91080716  .00024163  00000-0  86637-3 0  9994
2 61761  97.3747 267.5862 0009075 270.6878  89.3322 15.28675492 61334
ARCTICSAT-1 (RS74S)
1 61762U 24199AD  25037.87773258  .00029707  00000-0  10269-2 0  9996
2 61762  97.3769 267.6586 0011159 256.3698 103.6299 15.29808368 61334
SIT-HSE
1 61763U 24199AE  25037.89526483  .00026347  00000-0  92955-3 0  9995
2 61763  97.3750 267.6079 0008933 269.7241  90.2976 15.29187363 61338
SIT-2086
1 61764U 24199AF  25037.88975663  .00025959  00000-0  91398-3 0  9991
2 61764  97.3748 267.6154 0008673 270.5810  89.4437 15.29260310 58177
MORDOVIA-IOT (RS50S)
1 61765U 24199AG  25037.90042241  .00038054  00000-0  12591-2 0  9999
2 61765  97.3770 267.7816 0010818 254.8721 105.1324 15.31177095 58192
RUZAEVKA-390 (RS44S)
1 61766U 24199AH  25037.91007959  .00036478  00000-0  12223-2 0  9998
2 61766  97.3768 267.7656 0010780 254.1580 105.8473 15.30779334 58191
2024-199AJ (? AHMAT-2)
1 61767U 24199AJ  25037.93982067  .00042159  00000-0  13656-2 0  9997
2 61767  97.3756 267.8688 0010325 252.4781 107.5333 15.31843129 58205
HOD-HOD
1 61768U 24199AK  25037.89795776  .00020988  00000-0  75546-3 0  9995
2 61768  97.3754 267.6137 0007197 276.6581  83.3840 15.28590923 58188
KOSAR
1 61769U 24199AL  25037.88376339  .00020345  00000-0  72455-3 0  9998
2 61769  97.3749 267.6272 0006939 277.5252  82.5200 15.28949401 58181
2024-199AM
1 61770U 24199AM  25037.90002667  .00269550  00000-0  42392-2 0  9992
2 61770  97.3523 268.7397 0008121 277.3215  82.7115 15.52624768 58275
SITRO-AIS-48
1 61771U 24199AN  25037.91380827  .00023172  00000-0  85788-3 0  9996
2 61771  97.3722 267.3999 0012807 280.9707  79.0091 15.27592001 58179
HYPERVIEW-1G (RS66S)
1 61772U 24199AP  25037.89508470  .00028476  00000-0  10300-2 0  9999
2 61772  97.3745 267.4536 0014171 272.7951  87.1667 15.28297363 58172
SITRO-AIS-47
1 61773U 24199AQ  25037.91489662  .00024127  00000-0  89217-3 0  9997
2 61773  97.3723 267.4006 0012872 281.2227  78.7565 15.27621739 58178
SITRO-AIS-46
1 61774U 24199AR  25037.91273521  .00026080  00000-0  96039-3 0  9993
2 61774  97.3721 267.4015 0013011 281.3039  78.6738 15.27741101 58172
CSTP-2.2
1 61775U 24199AS  25037.89808957  .00015645  00000-0  60870-3 0  9997
2 61775  97.3754 267.3064 0014693 272.9808  86.9749 15.26003934 58166
SITRO-AIS-40
1 61776U 24199AT  25037.91475751  .00026392  00000-0  97230-3 0  9994
2 61776  97.3722 267.4009 0013152 281.7333  78.2430 15.27722812 61329
CSTP-2.1
1 61777U 24199AU  25037.89785562  .00014440  00000-0  56199-3 0  9996
2 61777  97.3751 267.3062 0014740 274.1831  85.7722 15.26010943 58162
SITRO-AIS-39
1 61778U 24199AV  25037.92438817  .00023821  00000-0  88584-3 0  9995
2 61778  97.3722 267.3876 0013272 282.1717  77.8035 15.27433225 58178
ALTAIR (RS65S)
1 61779U 24199AW  25037.84161644  .00014584  00000-0  57257-3 0  9997
2 61779  97.3754 267.2304 0014973 273.5536  86.3989 15.25713625 61306
SITRO-AIS-37
1 61780U 24199AX  25037.92575515  .00025160  00000-0  93448-3 0  9998
2 61780  97.3730 267.3960 0013599 281.7978  78.1736 15.27458785 58170
ASRTU-1 (RS64S/BJ2CR)
1 61781U 24199AY  25037.91862946  .00013736  00000-0  54245-3 0  9993
2 61781  97.3751 267.2797 0015219 273.5422  86.4075 15.25527913 58160
TUSUR GO (RS78S)
1 61782U 24199AZ  25037.91496615  .00033815  00000-0  12266-2 0  9996
2 61782  97.3743 267.4296 0015169 272.5618  87.3885 15.28153557 58170
ZIMSAT-2 (Z2AS)
1 61783U 24199BA  25037.93954174  .00039105  00000-0  13572-2 0  9997
2 61783  97.3740 267.5425 0015441 272.6073  87.3400 15.29562710 61333
SAMSAT-IONOSPHERE (RS75S)
1 61784U 24199BB  25037.93231196  .00024800  00000-0  92369-3 0  9998
2 61784  97.3748 267.4081 0015256 272.6290  87.3203 15.27346388 61323
RTU MIREA-1 (RS51S)
1 61785U 24199BC  25037.92829881  .00025794  00000-0  95630-3 0  9999
2 61785  97.3747 267.4135 0015133 272.1550  87.7957 15.27491596 58172
SITRO-AIS-38
1 61786U 24199BD  25037.86315723  .00024926  00000-0  92793-3 0  9991
2 61786  97.3725 267.3215 0013531 283.1499  76.8230 15.27384760 58167
2024-199BE (? SWSU-60)
1 61787U 24199BE  25037.92077002  .00013581  00000-0  53802-3 0  9997
2 61787  97.3752 267.2762 0015397 273.1528  86.7949 15.25422733 61317
SITRO-AIS-45
1 61788U 24199BF  25037.92030826  .00024818  00000-0  92092-3 0  9990
2 61788  97.3717 267.3870 0013186 281.6827  78.2933 15.27496690 58152
SITRO-AIS-17
1 61789U 24199BG  25037.90915063  .00006585  00000-0  62294-3 0  9996
2 61789  97.3769 262.9880 0005589 318.7747  41.3052 14.93952544 57983
SITRO-AIS-18
1 61790U 24199BH  25037.91011013  .00006345  00000-0  60077-3 0  9992
2 61790  97.3765 262.9823 0005399 316.6586  43.4210 14.93929750 57987
LIGNOSAT
1 62296U 98067XC  25037.79833212  .00159789  00000-0  15477-2 0  9992
2 62296  51.6319 229.6987 0013090 201.1718 158.8737 15.65250971  9265
YOMOGI
1 62298U 98067XE  25037.73107174  .00158838  00000-0  15228-2 0  9997
2 62298  51.6305 229.9977 0013025 201.7134 158.3310 15.65511902  9255
POEM-4
1 62461U 24253C   25037.92139625  .00144397  00000-0  74872-3 0  9998
2 62461  55.2204  73.4638 0011991  30.6003 329.5743 15.80062323  6024
PLEIADES-ORPHEUS
1 98724C 24248D   24356.55167141  .00080857  00000+0  38463-2 0    06
2 98724  44.9996   0.5278 0003834  18.1359 115.7653 15.18415623    15
CROCUBE
1 98799U          24356.55243530  .00075084  00000+0  37160-2 0    04
2 98799  45.0011   0.5205 0005283 101.7631  36.3233 15.17035563    11
LASARSAT
1 98797U          24356.55243530  .00075084  00000+0  37160-2 0    02
2 98797  45.0011   0.5205 0005283 101.7631  36.3233 15.17035563    19
